NORAD_CAT_ID,OBJECT_NAME,OBJECT_TYPE,EPOCH,MEAN_MOTION,ECCENTRICITY,INCLINATION,RA_OF_ASC_NODE,ARG_OF_PERICENTER,MEAN_ANOMALY,BSTAR,MEAN_MOTION_DOT,MEAN_MOTION_DDOT,TLE_LINE0,TLE_LINE1,TLE_LINE2,SEMIMAJOR_AXIS,PERIOD,APOGEE,PERIGEE,DECAYED
52660.0,STARLINK-4081,PAYLOAD,2023-04-16 18:24:59,15.08857807,0.00011,53.2151,223.3181,102.5987,257.5128,0.0021797,0.00034589,0.0,0 STARLINK-4081,1 52660U 22053E   23106.76735284  .00034589  00000-0  21797-2 0  9992,2 52660  53.2151 223.3181 0001100 102.5987 257.5128 15.08857807 51401,6917.826,95.436,540.452,538.93,0.0
52660.0,STARLINK-4081,PAYLOAD,2023-04-17 13:29:37,15.08845758,0.0001291,53.2154,219.7515,84.1201,275.9939,0.0017575,0.00027798,0.0,0 STARLINK-4081,1 52660U 22053E   23107.56224145  .00027798  00000-0  17575-2 0  9993,2 52660  53.2154 219.7515 0001291  84.1201 275.9939 15.08845758 51528,6917.863,95.437,540.621,538.835,0.0
52660.0,STARLINK-4081,PAYLOAD,2023-04-17 16:40:23,15.08851449,0.0001408,53.2159,219.1583,80.094,280.0211,0.0018299,0.00028964,0.0,0 STARLINK-4081,1 52660U 22053E   23107.69472095  .00028964  00000-0  18299-2 0  9996,2 52660  53.2159 219.1583 0001408  80.0940 280.0211 15.08851449 51543,6917.845,95.437,540.684,538.736,0.0
52660.0,STARLINK-4081,PAYLOAD,2023-04-18 00:37:19,15.08847828,0.0001157,53.2158,217.6698,89.5181,270.5944,0.001205,0.00018946,0.0,0 STARLINK-4081,1 52660U 22053E   23108.02592216  .00018946  00000-0  12050-2 0  9990,2 52660  53.2158 217.6698 0001157  89.5181 270.5944 15.08847828 51592,6917.856,95.437,540.522,538.921,0.0
52660.0,STARLINK-4081,PAYLOAD,2023-04-18 10:09:38,15.0884677,0.0001087,53.2154,215.8843,105.1617,254.9495,0.0014438,0.00022769,0.0,0 STARLINK-4081,1 52660U 22053E   23108.42336238  .00022769  00000-0  14438-2 0  9994,2 52660  53.2154 215.8843 0001087 105.1617 254.9495 15.08846770 51650,6917.86,95.437,540.477,538.973,0.0
52660.0,STARLINK-4081,PAYLOAD,2023-04-18 16:31:10,15.08863071,0.0001111,53.2157,214.6951,93.4508,266.6612,0.0024724,0.00039305,0.0,0 STARLINK-4081,1 52660U 22053E   23108.68832139  .00039305  00000-0  24724-2 0  9996,2 52660  53.2157 214.6951 0001111  93.4508 266.6612 15.08863071 51694,6917.81,95.436,540.443,538.906,0.0
52660.0,STARLINK-4081,PAYLOAD,2023-04-19 00:28:05,15.08896818,0.0001151,53.2157,213.2086,88.5626,271.5498,0.003007,0.00047969,0.0,0 STARLINK-4081,1 52660U 22053E   23109.01951255  .00047969  00000-0  30070-2 0  9991,2 52660  53.2157 213.2086 0001151  88.5626 271.5498 15.08896818 51746,6917.707,95.434,540.368,538.775,0.0
52660.0,STARLINK-4081,PAYLOAD,2023-04-19 21:08:08,15.08842111,7.3e-05,53.2165,209.3436,103.8676,256.2397,0.00098125,0.00015364,0.0,0 STARLINK-4081,1 52660U 22053E   23109.88064850  .00015364  00000-0  98125-3 0  9992,2 52660  53.2165 209.3436 0000730 103.8676 256.2397 15.08842111 51877,6917.874,95.437,540.244,539.234,0.0
52660.0,STARLINK-4081,PAYLOAD,2023-04-20 09:51:13,15.08850616,0.0001171,53.2165,206.9655,69.2888,290.823,0.0017277,0.00027323,0.0,0 STARLINK-4081,1 52660U 22053E   23110.41056885  .00027323  00000-0  17277-2 0  9998,2 52660  53.2165 206.9655 0001171  69.2888 290.8230 15.08850616 51951,6917.848,95.437,540.523,538.903,0.0
52660.0,STARLINK-4081,PAYLOAD,2023-04-20 16:12:45,15.08866892,0.0001116,53.2167,205.7759,66.8762,293.2348,0.0017074,0.0002701,0.0,0 STARLINK-4081,1 52660U 22053E   23110.67552449  .00027010  00000-0  17074-2 0  9991,2 52660  53.2167 205.7759 0001116  66.8762 293.2348 15.08866892 51992,6917.798,95.436,540.435,538.891,0.0
52660.0,STARLINK-4081,PAYLOAD,2023-04-21 12:52:46,15.08844448,8.73e-05,53.2164,201.9088,72.4089,287.6999,0.00040368,6.143e-05,0.0,0 STARLINK-4081,1 52660U 22053E   23111.53664742  .00006143  00000-0  40368-3 0  9994,2 52660  53.2164 201.9088 0000873  72.4089 287.6999 15.08844448 52124,6917.867,95.437,540.336,539.128,0.0
52660.0,STARLINK-4081,PAYLOAD,2023-04-21 16:03:32,15.08847344,9.54e-05,53.2165,201.3143,77.9708,282.1391,0.00053882,8.3e-05,0.0,0 STARLINK-4081,1 52660U 22053E   23111.66912711  .00008300  00000-0  53882-3 0  9992,2 52660  53.2165 201.3143 0000954  77.9708 282.1391 15.08847344 52145,6917.858,95.437,540.383,539.063,0.0
52660.0,STARLINK-4081,PAYLOAD,2023-04-21 22:25:05,15.08852865,9.53e-05,53.2161,200.1247,76.3843,283.7255,0.0008625,0.0001347,0.0,0 STARLINK-4081,1 52660U 22053E   23111.93408616  .00013470  00000-0  86250-3 0  9995,2 52660  53.2161 200.1247 0000953  76.3843 283.7255 15.08852865 52189,6917.841,95.437,540.365,539.047,0.0
52660.0,STARLINK-4081,PAYLOAD,2023-04-22 14:18:56,15.08855012,0.0001253,53.2175,197.1538,86.0277,274.0859,0.00059043,9.125e-05,0.0,0 STARLINK-4081,1 52660U 22053E   23112.59648494  .00009125  00000-0  59043-3 0  9990,2 52660  53.2175 197.1538 0001253  86.0277 274.0859 15.08855012 52286,6917.835,95.437,540.566,538.833,0.0
52660.0,STARLINK-4081,PAYLOAD,2023-04-22 22:15:52,15.08838853,0.000103,53.2158,195.6651,96.2767,263.8343,0.00023445,3.445e-05,0.0,0 STARLINK-4081,1 52660U 22053E   23112.92768867  .00003445  00000-0  23445-3 0  9990,2 52660  53.2158 195.6651 0001030  96.2767 263.8343 15.08838853 52330,6917.884,95.438,540.461,539.036,0.0
52660.0,STARLINK-4081,PAYLOAD,2023-04-23 07:48:11,15.08834904,0.0001614,53.2177,193.8836,94.9602,265.1575,-1.5089e-05,-5.28e-06,0.0,0 STARLINK-4081,1 52660U 22053E   23113.32513226 -.00000528  00000-0 -15089-4 0  9999,2 52660  53.2177 193.8836 0001614  94.9602 265.1575 15.08834904 52398,6917.896,95.438,540.878,538.644,0.0
52660.0,STARLINK-4081,PAYLOAD,2023-04-23 14:09:44,15.08832726,0.0001585,53.2171,192.6937,95.2387,264.8786,8.0861e-06,-1.59e-06,0.0,0 STARLINK-4081,1 52660U 22053E   23113.59009424 -.00000159  00000-0  80861-5 0  9998,2 52660  53.2171 192.6937 0001585  95.2387 264.8786 15.08832726 52437,6917.903,95.438,540.864,538.671,0.0
52660.0,STARLINK-4081,PAYLOAD,2023-04-24 04:28:11,15.08888941,0.0001568,53.2177,190.0167,105.7733,254.3432,0.0014596,0.00023049,0.0,0 STARLINK-4081,1 52660U 22053E   23114.18624217  .00023049  00000-0  14596-2 0  9998,2 52660  53.2177 190.0167 0001568 105.7733 254.3432 15.08888941 52525,6917.731,95.434,540.681,538.511,0.0
52660.0,STARLINK-4081,PAYLOAD,2023-04-24 17:11:14,15.08942532,0.0001435,53.2151,187.6364,85.3512,274.7644,0.0029964,0.00047858,0.0,0 STARLINK-4081,1 52660U 22053E   23114.71614194  .00047858  00000-0  29964-2 0  9999,2 52660  53.2151 187.6364 0001435  85.3512 274.7644 15.08942532 52606,6917.567,95.431,540.425,538.439,0.0
52660.0,STARLINK-4081,PAYLOAD,2023-04-25 10:40:32,15.08770015,0.0001425,53.2148,184.3655,93.8867,266.2288,0.00071814,0.00011138,0.0,0 STARLINK-4081,1 52660U 22053E   23115.44481986  .00011138  00000-0  71814-3 0  9995,2 52660  53.2148 184.3655 0001425  93.8867 266.2288 15.08770015 52712,6918.094,95.442,540.945,538.973,0.0
52660.0,STARLINK-4081,PAYLOAD,2023-04-25 13:51:19,15.08775111,0.0001516,53.2141,183.7702,121.4426,238.6714,0.00071048,0.00011017,0.0,0 STARLINK-4081,1 52660U 22053E   23115.57730338  .00011017  00000-0  71048-3 0  9992,2 52660  53.2141 183.7702 0001516 121.4426 238.6714 15.08775111 52732,6918.079,95.442,540.993,538.895,0.0
52660.0,STARLINK-4081,PAYLOAD,2023-04-26 13:42:07,15.08819729,0.0001273,53.2141,179.3108,103.7552,256.3582,0.0022847,0.0003624,0.0,0 STARLINK-4081,1 52660U 22053E   23116.57092399  .00036240  00000-0  22847-2 0  9998,2 52660  53.2141 179.3108 0001273 103.7552 256.3582 15.08819729 52886,6917.942,95.439,540.688,538.927,0.0
52660.0,STARLINK-4081,PAYLOAD,2023-04-26 21:39:03,15.08845942,0.0001167,53.2143,177.8235,108.7957,251.3162,0.0011857,0.00018636,0.0,0 STARLINK-4081,1 52660U 22053E   23116.90211951  .00018636  00000-0  11857-2 0  9990,2 52660  53.2143 177.8235 0001167 108.7957 251.3162 15.08845942 52939,6917.862,95.437,540.535,538.92,0.0
52660.0,STARLINK-4081,PAYLOAD,2023-04-27 10:22:07,15.0886574,0.0001226,53.2151,175.444,108.3343,251.7783,0.0012203,0.000192,0.0,0 STARLINK-4081,1 52660U 22053E   23117.43203399  .00019200  00000-0  12203-2 0  9990,2 52660  53.2151 175.4440 0001226 108.3343 251.7783 15.08865740 53012,6917.802,95.436,540.515,538.819,0.0
52660.0,STARLINK-4081,PAYLOAD,2023-04-27 15:08:16,15.08872514,0.0001181,53.2146,174.5519,108.9963,251.1157,0.0012085,0.00019015,0.0,0 STARLINK-4081,1 52660U 22053E   23117.63075012  .00019015  00000-0  12085-2 0  9993,2 52660  53.2146 174.5519 0001181 108.9963 251.1157 15.08872514 53046,6917.781,95.435,540.463,538.829,0.0
52660.0,STARLINK-4081,PAYLOAD,2023-04-28 10:12:53,15.0887175,0.0001365,53.216,170.9831,105.8818,254.2325,0.00049517,7.608e-05,0.0,0 STARLINK-4081,1 52660U 22053E   23118.42561753  .00007608  00000-0  49517-3 0  9999,2 52660  53.2160 170.9831 0001365 105.8818 254.2325 15.08871750 53163,6917.783,95.436,540.593,538.704,0.0
52660.0,STARLINK-4081,PAYLOAD,2023-04-29 03:42:07,15.08848271,0.0001416,53.2159,167.7109,107.3643,252.7504,-0.00020072,-3.482e-05,0.0,0 STARLINK-4081,1 52660U 22053E   23119.15425434 -.00003482  00000-0 -20072-3 0  9998,2 52660  53.2159 167.7109 0001416 107.3643 252.7504 15.08848271 53279,6917.855,95.437,540.7,538.741,0.0
52660.0,STARLINK-4081,PAYLOAD,2023-04-29 10:03:40,15.08847366,0.0001319,53.2161,166.5222,104.1141,255.9998,-0.00012868,-2.336e-05,0.0,0 STARLINK-4081,1 52660U 22053E   23119.41921543 -.00002336  00000-0 -12868-3 0  9990,2 52660  53.2161 166.5222 0001319 104.1141 255.9998 15.08847366 53316,6917.858,95.437,540.635,538.81,0.0
52660.0,STARLINK-4081,PAYLOAD,2023-04-30 08:19:04,15.08842222,0.0001227,53.2155,162.3614,93.7306,266.3826,-5.0679e-05,-1.094e-05,0.0,0 STARLINK-4081,1 52660U 22053E   23120.34657658 -.00001094  00000-0 -50679-4 0  9990,2 52660  53.2155 162.3614 0001227  93.7306 266.3826 15.08842222 53459,6917.874,95.437,540.587,538.89,0.0
52660.0,STARLINK-4081,PAYLOAD,2023-05-01 11:20:37,15.08838357,0.000132,53.2154,157.3037,95.1554,264.9589,0.00012772,1.745e-05,0.0,0 STARLINK-4081,1 52660U 22053E   23121.47266106  .00001745  00000-0  12772-3 0  9991,2 52660  53.2154 157.3037 0001320  95.1554 264.9589 15.08838357 53629,6917.885,95.438,540.664,538.837,0.0
